CTC1_L_00565001-01
1 60867U 23786QK  26037.47809028  .00000000  00000+0  00000-0 0  9998
2 60867  98.3000   0.0000 0000000   0.0000   0.0000 14.51731110    14
CTC1_L_00565001-02
1 60868U 23429VK  26037.47809028  .00000000  00000+0  00000-0 0  9993
2 60868  98.3000   0.0000 0000000   0.0000  45.0000 14.51731110    14
CTC1_L_00565001-03
1 60869U 26668RL  26037.47809028  .00000000  00000+0  00000-0 0  9992
2 60869  98.3000   0.0000 0000000   0.0000  90.0000 14.51731110    15
CTC1_L_00565001-04
1 60870U 25164TM  26037.47809028  .00000000  00000+0  00000-0 0  9994
2 60870  98.3000   0.0000 0000000   0.0000 135.0000 14.51731110    17
CTC1_L_00565001-05
1 60871U 22501VG  26037.47809028  .00000000  00000+0  00000-0 0  9997
2 60871  98.3000   0.0000 0000000   0.0000 180.0000 14.51731110    18
CTC1_L_00565001-06
1 60872U 25834LK  26037.47809028  .00000000  00000+0  00000-0 0  9990
2 60872  98.3000   0.0000 0000000   0.0000 225.0000 14.51731110    19
CTC1_L_00565001-07
1 60873U 22951OH  26037.47809028  .00000000  00000+0  00000-0 0  9998
2 60873  98.3000   0.0000 0000000   0.0000 270.0000 14.51731110    10
CTC1_L_00565001-08
1 60874U 22199HJ  26037.47809028  .00000000  00000+0  00000-0 0  9993
2 60874  98.3000   0.0000 0000000   0.0000 315.0000 14.51731110    11
CTC1_L_00565002-01
1 60875U 23221OD  26037.47809028  .00000000  00000+0  00000-0 0  9991
2 60875  98.3000  12.0000 0000000   0.0000   6.0000 14.51731110    12
CTC1_L_00565002-02
1 60876U 25317NN  26037.47809028  .00000000  00000+0  00000-0 0  9990
2 60876  98.3000  12.0000 0000000   0.0000  51.0000 14.51731110    13
CTC1_L_00565002-03
1 60877U 26493A   26037.47809028  .00000000  00000+0  00000-0 0  9997
2 60877  98.3000  12.0000 0000000   0.0000  96.0000 14.51731110    13
CTC1_L_00565002-04
1 60878U 24034TG  26037.47809028  .00000000  00000+0  00000-0 0  9997
2 60878  98.3000  12.0000 0000000   0.0000 141.0000 14.51731110    15
CTC1_L_00565002-05
1 60879U 26234WR  26037.47809028  .00000000  00000+0  00000-0 0  9992
2 60879  98.3000  12.0000 0000000   0.0000 186.0000 14.51731110    15
CTC1_L_00565002-06
1 60880U 23145TU  26037.47809028  .00000000  00000+0  00000-0 0  9992
2 60880  98.3000  12.0000 0000000   0.0000 231.0000 14.51731110    18
CTC1_L_00565002-07
1 60881U 23207DE  26037.47809028  .00000000  00000+0  00000-0 0  9992
2 60881  98.3000  12.0000 0000000   0.0000 276.0000 14.51731110    18
CTC1_L_00565002-08
1 60882U 24640AW  26037.47809028  .00000000  00000+0  00000-0 0  9995
2 60882  98.3000  12.0000 0000000   0.0000 321.0000 14.51731110    10
CTC1_L_00565003-01
1 60883U 25703XE  26037.47809028  .00000000  00000+0  00000-0 0  9997
2 60883  98.3000  24.0000 0000000   0.0000  12.0000 14.51731110    11
CTC1_L_00565003-02
1 60884U 25262QM  26037.47809028  .00000000  00000+0  00000-0 0  9998
2 60884  98.3000  24.0000 0000000   0.0000  57.0000 14.51731110    11
CTC1_L_00565003-03
1 60885U 24422QS  26037.47809028  .00000000  00000+0  00000-0 0  9996
2 60885  98.3000  24.0000 0000000   0.0000 102.0000 14.51731110    13
CTC1_L_00565003-04
1 60886U 25450IW  26037.47809028  .00000000  00000+0  00000-0 0  9999
2 60886  98.3000  24.0000 0000000   0.0000 147.0000 14.51731110    13
CTC1_L_00565003-05
1 60887U 25096CS  26037.47809028  .00000000  00000+0  00000-0 0  9996
2 60887  98.3000  24.0000 0000000   0.0000 192.0000 14.51731110    14
CTC1_L_00565003-06
1 60888U 23764TN  26037.47809028  .00000000  00000+0  00000-0 0  9997
2 60888  98.3000  24.0000 0000000   0.0000 237.0000 14.51731110    15
CTC1_L_00565003-07
1 60889U 23584BB  26037.47809028  .00000000  00000+0  00000-0 0  9998
2 60889  98.3000  24.0000 0000000   0.0000 282.0000 14.51731110    16
CTC1_L_00565003-08
1 60890U 23707HL  26037.47809028  .00000000  00000+0  00000-0 0  9997
2 60890  98.3000  24.0000 0000000   0.0000 327.0000 14.51731110    18
CTC1_L_00565004-01
1 60891U 23366QP  26037.47809028  .00000000  00000+0  00000-0 0  9999
2 60891  98.3000  36.0000 0000000   0.0000  18.0000 14.51731110    19
CTC1_L_00565004-02
1 60892U 26005YF  26037.47809028  .00000000  00000+0  00000-0 0  9993
2 60892  98.3000  36.0000 0000000   0.0000  63.0000 14.51731110    10
CTC1_L_00565004-03
1 60893U 24630YO  26037.47809028  .00000000  00000+0  00000-0 0  9996
2 60893  98.3000  36.0000 0000000   0.0000 108.0000 14.51731110    11
CTC1_L_00565004-04
1 60894U 24649QQ  26037.47809028  .00000000  00000+0  00000-0 0  9997
2 60894  98.3000  36.0000 0000000   0.0000 153.0000 14.51731110    12
CTC1_L_00565004-05
1 60895U 23334CN  26037.47809028  .00000000  00000+0  00000-0 0  9998
2 60895  98.3000  36.0000 0000000   0.0000 198.0000 14.51731110    12
CTC1_L_00565004-06
1 60896U 23203DX  26037.47809028  .00000000  00000+0  00000-0 0  9994
2 60896  98.3000  36.0000 0000000   0.0000 243.0000 14.51731110    14
CTC1_L_00565004-07
1 60897U 24657BE  26037.47809028  .00000000  00000+0  00000-0 0  9999
2 60897  98.3000  36.0000 0000000   0.0000 288.0000 14.51731110    14
CTC1_L_00565004-08
1 60898U 24098ZM  26037.47809028  .00000000  00000+0  00000-0 0  9999
2 60898  98.3000  36.0000 0000000   0.0000 333.0000 14.51731110    16
CTC1_L_00565005-01
1 60899U 22315AL  26037.47809028  .00000000  00000+0  00000-0 0  9990
2 60899  98.3000  48.0000 0000000   0.0000  24.0000 14.51731110    17
CTC1_L_00565005-02
1 60900U 25887US  26037.47809028  .00000000  00000+0  00000-0 0  9990
2 60900  98.3000  48.0000 0000000   0.0000  69.0000 14.51731110    19
CTC1_L_00565005-03
1 60901U 22411BZ  26037.47809028  .00000000  00000+0  00000-0 0  9991
2 60901  98.3000  48.0000 0000000   0.0000 114.0000 14.51731110    11
CTC1_L_00565005-04
1 60902U 25372CW  26037.47809028  .00000000  00000+0  00000-0 0  9991
2 60902  98.3000  48.0000 0000000   0.0000 159.0000 14.51731110    11
CTC1_L_00565005-05
1 60903U 25486H   26037.47809028  .00000000  00000+0  00000-0 0  9998
2 60903  98.3000  48.0000 0000000   0.0000 204.0000 14.51731110    13
CTC1_L_00565005-06
1 60904U 24495GG  26037.47809028  .00000000  00000+0  00000-0 0  9998
2 60904  98.3000  48.0000 0000000   0.0000 249.0000 14.51731110    13
CTC1_L_00565005-07
1 60905U 25076RN  26037.47809028  .00000000  00000+0  00000-0 0  9995
2 60905  98.3000  48.0000 0000000   0.0000 294.0000 14.51731110    14
CTC1_L_00565005-08
1 60906U 22119UR  26037.47809028  .00000000  00000+0  00000-0 0  9991
2 60906  98.3000  48.0000 0000000   0.0000 339.0000 14.51731110    15
CTC1_L_00565006-01
1 60907U 26713VP  26037.47809028  .00000000  00000+0  00000-0 0  9996
2 60907  98.3000  60.0000 0000000   0.0000  30.0000 14.51731110    18
CTC1_L_00565006-02
1 60908U 25175YJ  26037.47809028  .00000000  00000+0  00000-0 0  9998
2 60908  98.3000  60.0000 0000000   0.0000  75.0000 14.51731110    18
CTC1_L_00565006-03
1 60909U 22751CF  26037.47809028  .00000000  00000+0  00000-0 0  9996
2 60909  98.3000  60.0000 0000000   0.0000 120.0000 14.51731110    10
CTC1_L_00565006-04
1 60910U 26087VP  26037.47809028  .00000000  00000+0  00000-0 0  9994
2 60910  98.3000  60.0000 0000000   0.0000 165.0000 14.51731110    11
CTC1_L_00565006-05
1 60911U 23491OT  26037.47809028  .00000000  00000+0  00000-0 0  9991
2 60911  98.3000  60.0000 0000000   0.0000 210.0000 14.51731110    13
CTC1_L_00565006-06
1 60912U 24094TK  26037.47809028  .00000000  00000+0  00000-0 0  9992
2 60912  98.3000  60.0000 0000000   0.0000 255.0000 14.51731110    13
CTC1_L_00565006-07
1 60913U 23861N   26037.47809028  .00000000  00000+0  00000-0 0  9994
2 60913  98.3000  60.0000 0000000   0.0000 300.0000 14.51731110    15
CTC1_L_00565006-08
1 60914U 24257SS  26037.47809028  .00000000  00000+0  00000-0 0  9995
2 60914  98.3000  60.0000 0000000   0.0000 345.0000 14.51731110    15
CTC1_L_00565007-01
1 60915U 26652GW  26037.47809028  .00000000  00000+0  00000-0 0  9997
2 60915  98.3000  72.0000 0000000   0.0000  36.0000 14.51731110    16
CTC1_L_00565007-02
1 60916U 26806RG  26037.47809028  .00000000  00000+0  00000-0 0  9999
2 60916  98.3000  72.0000 0000000   0.0000  81.0000 14.51731110    17
CTC1_L_00565007-03
1 60917U 24801WM  26037.47809028  .00000000  00000+0  00000-0 0  9993
2 60917  98.3000  72.0000 0000000   0.0000 126.0000 14.51731110    18
CTC1_L_00565007-04
1 60918U 23587RH  26037.47809028  .00000000  00000+0  00000-0 0  9994
2 60918  98.3000  72.0000 0000000   0.0000 171.0000 14.51731110    19
CTC1_L_00565007-05
1 60919U 26937NF  26037.47809028  .00000000  00000+0  00000-0 0  9997
2 60919  98.3000  72.0000 0000000   0.0000 216.0000 14.51731110    10
CTC1_L_00565007-06
1 60920U 22614NO  26037.47809028  .00000000  00000+0  00000-0 0  9997
2 60920  98.3000  72.0000 0000000   0.0000 261.0000 14.51731110    12
CTC1_L_00565007-07
1 60921U 24993VL  26037.47809028  .00000000  00000+0  00000-0 0  9990
2 60921  98.3000  72.0000 0000000   0.0000 306.0000 14.51731110    13
CTC1_L_00565007-08
1 60922U 24073JU  26037.47809028  .00000000  00000+0  00000-0 0  9990
2 60922  98.3000  72.0000 0000000   0.0000 351.0000 14.51731110    14
CTC1_L_00565008-01
1 60923U 23527CD  26037.47809028  .00000000  00000+0  00000-0 0  9994
2 60923  98.3000  84.0000 0000000   0.0000  42.0000 14.51731110    15
CTC1_L_00565008-02
1 60924U 26273Y   26037.47809028  .00000000  00000+0  00000-0 0  9996
2 60924  98.3000  84.0000 0000000   0.0000  87.0000 14.51731110    15
CTC1_L_00565008-03
1 60925U 25675BP  26037.47809028  .00000000  00000+0  00000-0 0  9992
2 60925  98.3000  84.0000 0000000   0.0000 132.0000 14.51731110    17
CTC1_L_00565008-04
1 60926U 26221WO  26037.47809028  .00000000  00000+0  00000-0 0  9991
2 60926  98.3000  84.0000 0000000   0.0000 177.0000 14.51731110    17
CTC1_L_00565008-05
1 60927U 26957LR  26037.47809028  .00000000  00000+0  00000-0 0  9998
2 60927  98.3000  84.0000 0000000   0.0000 222.0000 14.51731110    19
CTC1_L_00565008-06
1 60928U 26796DE  26037.47809028  .00000000  00000+0  00000-0 0  9990
2 60928  98.3000  84.0000 0000000   0.0000 267.0000 14.51731110    19
